      2.10          N: GNSS NAV DATA                        RINEX VERSION / TYPE
fic2rin                                 10/31/2018 00:19:14 PGM / RUN BY / DATE
                                                            END OF HEADER
27 18 10 30  4  0  0.0-1.133838668466e-05-4.774847184308e-12 0.000000000000e+00
    6.500000000000e+01-3.243750000000e+01 4.379110978978e-09 7.181166123251e-02
   -1.771375536919e-06 6.116881035268e-03 2.918764948845e-06 5.153700210571e+03
    1.872000000000e+05-5.587935447693e-09-2.765080274749e-01 5.587935447693e-08
    9.783286715904e-01 3.292500000000e+02 4.401949656472e-01-8.374277393696e-09
   -1.735786588193e-10 1.000000000000e+00 2.025000000000e+03 0.000000000000e+00
    2.400000000000e+00 0.000000000000e+00 1.862645149231e-09 6.500000000000e+01
    1.800060000000e+05 4.000000000000e+00
24 18 10 30  4  0  0.0-5.748728290200e-05-5.684341886081e-13 0.000000000000e+00
    4.900000000000e+01 5.168750000000e+01 4.985921969377e-09-1.749517576052e+00
    2.458691596985e-06 7.513428339735e-03 9.130686521530e-06 5.153619291306e+03
    1.872000000000e+05 1.061707735062e-07-2.413888538455e+00-8.381903171539e-08
    9.404922338366e-01 1.922187500000e+02 5.435297056111e-01-8.090694152744e-09
   -1.678641350722e-10 1.000000000000e+00 2.025000000000e+03 0.000000000000e+00
    2.400000000000e+00 0.000000000000e+00 2.793967723846e-09 4.900000000000e+01
    1.800060000000e+05 4.000000000000e+00
22 18 10 30  4  0  0.0-5.603800527751e-04-1.011812855722e-11 0.000000000000e+00
    1.000000000000e+02-1.809375000000e+01 5.322007397256e-09-7.043069977392e-01
   -8.363276720047e-07 6.988494424149e-03 8.791685104370e-06 5.153670473099e+03
    1.872000000000e+05-6.891787052155e-08 1.756548955749e+00 7.636845111847e-08
    9.256359642705e-01 1.932812500000e+02-1.465873359578e+00-8.449637675611e-09
    4.271606500985e-10 1.000000000000e+00 2.025000000000e+03 0.000000000000e+00
    2.400000000000e+00 0.000000000000e+00-1.816079020500e-08 1.000000000000e+02
    1.800060000000e+05 4.000000000000e+00
25 18 10 30  4  0  0.0-6.692162714899e-04-5.684341886081e-12 0.000000000000e+00
    6.000000000000e+01 1.064687500000e+02 4.233033465692e-09 2.543878871749e+00
    5.368143320084e-06 7.538456004113e-03 5.608424544334e-06 5.153577621460e+03
    1.872000000000e+05 0.000000000000e+00-1.316933647984e+00-1.359730958939e-07
    9.724132467663e-01 2.768437500000e+02 8.549508918621e-01-7.970331996320e-09
    1.325055193867e-10 1.000000000000e+00 2.025000000000e+03 0.000000000000e+00
    2.400000000000e+00 0.000000000000e+00 5.587935447693e-09 6.000000000000e+01
    1.800060000000e+05 4.000000000000e+00
14 18 10 30  4  0  0.0-9.629828855395e-05 3.410605131648e-13 0.000000000000e+00
    9.200000000000e+01 3.906250000000e+00 4.825558146723e-09-1.963890381746e-01
    1.844018697739e-07 1.001657266170e-02 7.664784789085e-06 5.153634183884e+03
    1.872000000000e+05-8.754432201385e-08 2.946028777284e+00 1.415610313416e-07
    9.610924288774e-01 2.360000000000e+02-1.944290282854e+00-8.226771249473e-09
   -1.092902666640e-10 1.000000000000e+00 2.025000000000e+03 0.000000000000e+00
    2.400000000000e+00 0.000000000000e+00-9.778887033463e-09 9.200000000000e+01
    1.800060000000e+05 4.000000000000e+00
15 18 10 30  4  0  0.0-3.414880484343e-04 1.250555214938e-12 0.000000000000e+00
    8.400000000000e+01-4.062500000000e-01 5.575589388535e-09-8.429621245961e-01
    2.086162567139e-07 1.094156445470e-02 6.454065442085e-06 5.153576227188e+03
    1.872000000000e+05 1.713633537292e-07 2.780354674098e+00 1.657754182816e-07
    9.283558157118e-01 2.339062500000e+02 7.234620111195e-01-8.584286141403e-09
   -7.500312418118e-11 1.000000000000e+00 2.025000000000e+03 0.000000000000e+00
    2.400000000000e+00 0.000000000000e+00-1.117587089539e-08 8.400000000000e+01
    1.800060000000e+05 4.000000000000e+00
11 18 10 30  4  0  0.0-7.050959393382e-04 3.751665644813e-12 0.000000000000e+00
    8.500000000000e+01-9.331250000000e+01 5.496300371544e-09-2.784497984329e+00
   -4.651024937630e-06 1.685553172138e-02 5.204230546951e-06 5.153669160843e+03
    1.872000000000e+05 1.862645149231e-07 3.418619411335e-01 1.136213541031e-07
    9.073757593625e-01 2.488125000000e+02 1.834669730616e+00-8.363919819404e-09
   -9.214669542259e-11 1.000000000000e+00 2.025000000000e+03 0.000000000000e+00
    2.400000000000e+00 0.000000000000e+00-1.210719347000e-08 8.500000000000e+01
    1.800060000000e+05 4.000000000000e+00
23 18 10 30  4  0  0.0-2.074963413179e-04 9.094947017729e-13 0.000000000000e+00
    7.900000000000e+01 8.562500000000e+00 5.124499170245e-09-1.331911055945e+00
    5.308538675308e-07 1.263310597278e-02 6.536021828651e-06 5.153699823380e+03
    1.872000000000e+05 2.868473529816e-07 2.851883589839e+00 5.029141902924e-08
    9.436883046115e-01 2.382500000000e+02-2.321290539023e+00-8.243200505246e-09
    4.285892810353e-12 1.000000000000e+00 2.025000000000e+03 0.000000000000e+00
    2.400000000000e+00 0.000000000000e+00-2.002343535423e-08 7.900000000000e+01
    1.800060000000e+05 4.000000000000e+00
19 18 10 30  4  0  0.0-3.887303173542e-04 3.637978807092e-12 0.000000000000e+00
    6.000000000000e+01-5.346875000000e+01 4.189817379854e-09 2.818605364901e+00
   -2.773478627205e-06 9.507027571090e-03 3.321096301079e-06 5.153609224319e+03
    1.872000000000e+05 1.154839992523e-07-1.749448798422e-01-1.862645149231e-07
    9.813856700581e-01 3.226562500000e+02 1.305497053295e+00-7.989975671701e-09
   -2.321525272275e-10 1.000000000000e+00 2.025000000000e+03 0.000000000000e+00
    2.400000000000e+00 0.000000000000e+00-1.536682248116e-08 6.000000000000e+01
    1.800060000000e+05 4.000000000000e+00
21 18 10 30  4  0  0.0-3.129914402962e-04 6.366462912410e-12 0.000000000000e+00
    6.300000000000e+01-1.243437500000e+02 4.548046587253e-09 2.404082415705e+00
   -6.336718797684e-06 2.439910906833e-02 8.257105946541e-06 5.153604614258e+03
    1.872000000000e+05 3.036111593246e-07 7.204017737512e-01-5.029141902924e-08
    9.458134535210e-01 2.064062500000e+02-1.516349036492e+00-7.700320749268e-09
   -1.267909956396e-10 1.000000000000e+00 2.025000000000e+03 0.000000000000e+00
    2.400000000000e+00 0.000000000000e+00-9.778887033463e-09 6.300000000000e+01
    1.800060000000e+05 4.000000000000e+00
32 18 10 30  4  0  0.0-3.756876103580e-04 1.330136001343e-11 0.000000000000e+00
    4.500000000000e+01 1.218750000000e+00 4.878417491384e-09 8.280832719636e-01
   -8.381903171539e-08 2.317870734259e-03 7.290393114090e-06 5.153712461472e+03
    1.872000000000e+05-3.725290298462e-08 2.860688134503e+00 4.097819328308e-08
    9.572081560876e-01 2.374375000000e+02-2.585656223555e+00-8.118552456011e-09
   -1.100045821324e-10 1.000000000000e+00 2.025000000000e+03 0.000000000000e+00
    2.400000000000e+00 0.000000000000e+00 4.656612873077e-10 4.500000000000e+01
    1.800060000000e+05 4.000000000000e+00
16 18 10 30  4  0  0.0 1.620035618544e-06-2.046363078989e-12 0.000000000000e+00
    4.600000000000e+01 8.943750000000e+01 4.091599002950e-09 1.025141467886e+00
    4.893168807030e-06 1.007924124133e-02 6.148591637611e-06 5.153725894928e+03
    1.872000000000e+05 1.676380634308e-08-1.236281872697e+00 9.126961231232e-08
    9.852811941508e-01 2.715000000000e+02 5.195232872245e-01-8.152482440760e-09
   -1.178620522847e-11 1.000000000000e+00 2.025000000000e+03 0.000000000000e+00
    2.400000000000e+00 0.000000000000e+00-1.071020960808e-08 4.600000000000e+01
    1.800060000000e+05 4.000000000000e+00
 9 18 10 30  4  0  0.0 4.966929554939e-04-2.955857780762e-12 0.000000000000e+00
    5.300000000000e+01 5.500000000000e+00 4.931991151514e-09 5.289813159322e-01
    1.620501279831e-07 1.288111438043e-03 6.990507245064e-06 5.153793237686e+03
    1.872000000000e+05 5.587935447693e-09 2.854976854046e+00 3.352761268616e-08
    9.528763795831e-01 2.379687500000e+02 1.682064348617e+00-8.230342826815e-09
   -6.321691895271e-11 1.000000000000e+00 2.025000000000e+03 0.000000000000e+00
    2.400000000000e+00 0.000000000000e+00 1.396983861923e-09 5.300000000000e+01
    1.800060000000e+05 4.000000000000e+00
30 18 10 30  4  0  0.0 2.851244062185e-06-5.570655048359e-12 0.000000000000e+00
    1.000000000000e+02 5.078125000000e+01 4.895561062626e-09-2.786918374977e+00
    2.672895789146e-06 3.598369541578e-03 9.611248970032e-06 5.153674091339e+03
    1.872000000000e+05-5.587935447693e-08-2.320200752829e+00-1.862645149231e-09
    9.428694888817e-01 1.891875000000e+02-2.978251663359e+00-8.112123616796e-09
   -1.975082270104e-10 1.000000000000e+00 2.025000000000e+03 0.000000000000e+00
    3.400000000000e+00 0.000000000000e+00 3.725290298462e-09 1.000000000000e+02
    1.800060000000e+05 4.000000000000e+00
31 18 10 30  4  0  0.0 8.326070383191e-05-2.614797267597e-12 0.000000000000e+00
    5.900000000000e+01 5.834375000000e+01 4.455542734096e-09-3.026284559665e+00
    3.095716238022e-06 9.002199745737e-03 1.051649451256e-05 5.153773685455e+03
    1.872000000000e+05-1.434236764908e-07-2.338319661794e+00-3.539025783539e-08
    9.619490069116e-01 1.776250000000e+02-8.907389561100e-02-7.758180302207e-09
   -2.864405028253e-10 1.000000000000e+00 2.025000000000e+03 0.000000000000e+00
    2.400000000000e+00 0.000000000000e+00-1.350417733192e-08 5.900000000000e+01
    1.800060000000e+05 4.000000000000e+00
18 18 10 30  4  0  0.0 7.377006113529e-05 4.206412995700e-12 0.000000000000e+00
    5.400000000000e+01-9.790625000000e+01 4.424112853487e-09-2.347633931005e+00
   -4.939734935760e-06 1.497469912283e-02 8.041039109230e-06 5.153626424789e+03
    1.872000000000e+05 2.086162567139e-07 7.283763216031e-01-6.146728992462e-08
    9.515274652468e-01 2.177812500000e+02 1.359489409722e+00-7.797824810703e-09
    5.107355599004e-11 1.000000000000e+00 2.025000000000e+03 0.000000000000e+00
    2.400000000000e+00 0.000000000000e+00-6.519258022308e-09 5.400000000000e+01
    1.800060000000e+05 4.000000000000e+00
